[{"OBJECT_NAME":"ITUPSAT1","OBJECT_ID":"2009-051E","EPOCH":"2026-03-09T22:57:51.275808","MEAN_MOTION":14.60268809,"ECCENTRICITY":0.0007289,"INCLINATION":98.4113,"RA_OF_ASC_NODE":334.2386,"ARG_OF_PERICENTER":177.2915,"MEAN_ANOMALY":182.8326,"EPHEMERIS_TYPE":0,"CLASSIFICATION_TYPE":"U","NORAD_CAT_ID":35935,"ELEMENT_SET_NO":999,"REV_AT_EPOCH":87425,"BSTAR":0.00025648628,"MEAN_MOTION_DOT":1.19e-5,"MEAN_MOTION_DDOT":0},{"OBJECT_NAME":"FENGYUN 1C DEB","OBJECT_ID":"1999-025DPC","EPOCH":"2026-03-07T12:06:33.082848","MEAN_MOTION":14.20165235,"ECCENTRICITY":0.02152704,"INCLINATION":98.5337,"RA_OF_ASC_NODE":83.7444,"ARG_OF_PERICENTER":92.5113,"MEAN_ANOMALY":62.2577,"EPHEMERIS_TYPE":0,"CLASSIFICATION_TYPE":"U","NORAD_CAT_ID":35196,"ELEMENT_SET_NO":999,"REV_AT_EPOCH":90337,"BSTAR":0.0010006703,"MEAN_MOTION_DOT":2.653e-5,"MEAN_MOTION_DDOT":0}]
